{"type": "FeatureCollection", "features": [ {"type": "Feature", "properties": {"norad_id": 36278, "name": "FENGYUN 1C DEB", "group": "fengyun-1c-debris", "lat": -61.86633407278476, "lon": -64.59033819440862, "alt_km": 808.5962553843374, "timestamp": "2025-12-25T07:00:34.337031+00:00", "meta": {"OBJECT_NAME": "FENGYUN 1C DEB", "OBJECT_ID": "1999-025DXF", "EPOCH": "2025-12-24T12:40:14.200032", "MEAN_MOTION": 14.17401848, "ECCENTRICITY": 0.00606079, "INCLINATION": 99.1252, "RA_OF_ASC_NODE": 277.1324, "ARG_OF_PERICENTER": 257.0871, "MEAN_ANOMALY": 102.3528, "EPHEMERIS_TYPE": 0, "CLASSIFICATION_TYPE": "U", "NORAD_CAT_ID": 36278, "ELEMENT_SET_NO": 999, "REV_AT_EPOCH": 93643, "BSTAR": 0.00043605527, "MEAN_MOTION_DOT": 8.52e-06, "MEAN_MOTION_DDOT": 0}, "tle": {"line1": "1 36278U 99025DXF 25358.52794213  .00000852  00000+0  43606-3 0  9993", "line2": "2 36278  99.1252 277.1324 0060607 257.0871 102.3528 14.17401848936435"}}, "geometry": {"type": "Point", "coordinates": [-64.59033819440862, -61.86633407278476]}}, {"type": "Feature", "properties": {"norad_id": 36279, "name": "FENGYUN 1C DEB", "group": "fengyun-1c-debris", "lat": -19.675448755025663, "lon": 153.69693983555965, "alt_km": 893.3813243131608, "timestamp": "2025-12-25T07:00:34.337041+00:00", "meta": {"OBJECT_NAME": "FENGYUN 1C DEB", "OBJECT_ID": "1999-025DXG", "EPOCH": "2025-12-24T04:36:30.849408", "MEAN_MOTION": 14.1473428, "ECCENTRICITY": 0.00624156, "INCLINATION": 98.5623, "RA_OF_ASC_NODE": 335.7298, "ARG_OF_PERICENTER": 22.9202, "MEAN_ANOMALY": 337.4736, "EPHEMERIS_TYPE": 0, "CLASSIFICATION_TYPE": "U", "NORAD_CAT_ID": 36279, "ELEMENT_SET_NO": 999, "REV_AT_EPOCH": 89201, "BSTAR": 0.00014307987, "MEAN_MOTION_DOT": 2.39e-06, "MEAN_MOTION_DDOT": 0}, "tle": {"line1": "1 36279U 99025DXG 25358.19202372  .00000239  00000+0  14308-3 0  9993", "line2": "2 36279  98.5623 335.7298 0062415  22.9202 337.4736 14.14734280892011"}}, "geometry": {"type": "Point", "coordinates": [153.69693983555965, -19.675448755025663]}}, {"type": "Feature", "properties": {"norad_id": 36280, "name": "FENGYUN 1C DEB", "group": "fengyun-1c-debris", "lat": 13.26639229557351, "lon": 25.87356151876185, "alt_km": 817.6484007726958, "timestamp": "2025-12-25T07:00:34.337052+00:00", "meta": {"OBJECT_NAME": "FENGYUN 1C DEB", "OBJECT_ID": "1999-025DXH", "EPOCH": "2025-12-24T19:51:52.563744", "MEAN_MOTION": 14.09775339, "ECCENTRICITY": 0.00626202, "INCLINATION": 98.7658, "RA_OF_ASC_NODE": 27.5061, "ARG_OF_PERICENTER": 31.2653, "MEAN_ANOMALY": 147.0078, "EPHEMERIS_TYPE": 0, "CLASSIFICATION_TYPE": "U", "NORAD_CAT_ID": 36280, "ELEMENT_SET_NO": 999, "REV_AT_EPOCH": 86524, "BSTAR": 0.00087217103, "MEAN_MOTION_DOT": 1.518e-05, "MEAN_MOTION_DDOT": 0}, "tle": {"line1": "1 36280U 99025DXH 25358.82769171  .00001518  00000+0  87217-3 0  9990", "line2": "2 36280  98.7658  27.5061 0062620  31.2653 147.0078 14.09775339865241"}}, "geometry": {"type": "Point", "coordinates": [25.87356151876185, 13.26639229557351]}}, {"type": "Feature", "properties": {"norad_id": 36281, "name": "FENGYUN 1C DEB", "group": "fengyun-1c-debris", "lat": -61.7532743796989, "lon": 82.90425180377764, "alt_km": 1249.4212533258387, "timestamp": "2025-12-25T07:00:34.337062+00:00", "meta": {"OBJECT_NAME": "FENGYUN 1C DEB", "OBJECT_ID": "1999-025DXJ", "EPOCH": "2025-12-20T00:30:26.383680", "MEAN_MOTION": 13.60294135, "ECCENTRICITY": 0.02913999, "INCLINATION": 99.2595, "RA_OF_ASC_NODE": 275.5857, "ARG_OF_PERICENTER": 92.0584, "MEAN_ANOMALY": 271.3952, "EPHEMERIS_TYPE": 0, "CLASSIFICATION_TYPE": "U", "NORAD_CAT_ID": 36281, "ELEMENT_SET_NO": 999, "REV_AT_EPOCH": 84616, "BSTAR": 0.00281607, "MEAN_MOTION_DOT": 2.757e-05, "MEAN_MOTION_DDOT": 0}, "tle": {"line1": "1 36281U 99025DXJ 25354.02113870  .00002757  00000+0  28161-2 0  9996", "line2": "2 36281  99.2595 275.5857 0291399  92.0584 271.3952 13.60294135846169"}}, "geometry": {"type": "Point", "coordinates": [82.90425180377764, -61.7532743796989]}}, {"type": "Feature", "properties": {"norad_id": 36283, "name": "FENGYUN 1C DEB", "group": "fengyun-1c-debris", "lat": -15.223367361916882, "lon": 144.57543069227867, "alt_km": 595.7219034440232, "timestamp": "2025-12-25T07:00:34.337073+00:00", "meta": {"OBJECT_NAME": "FENGYUN 1C DEB", "OBJECT_ID": "1999-025DXL", "EPOCH": "2025-12-24T15:48:14.147712", "MEAN_MOTION": 15.06937596, "ECCENTRICITY": 0.00659896, "INCLINATION": 99.4228, "RA_OF_ASC_NODE": 326.3914, "ARG_OF_PERICENTER": 12.9704, "MEAN_ANOMALY": 347.3196, "EPHEMERIS_TYPE": 0, "CLASSIFICATION_TYPE": "U", "NORAD_CAT_ID": 36283, "ELEMENT_SET_NO": 999, "REV_AT_EPOCH": 66845, "BSTAR": 0.0022105342, "MEAN_MOTION_DOT": 0.00034786, "MEAN_MOTION_DDOT": 0}, "tle": {"line1": "1 36283U 99025DXL 25358.65849708  .00034786  00000+0  22105-2 0  9996", "line2": "2 36283  99.4228 326.3914 0065989  12.9704 347.3196 15.06937596668459"}}, "geometry": {"type": "Point", "coordinates": [144.57543069227867, -15.223367361916882]}}, {"type": "Feature", "properties": {"norad_id": 36644, "name": "FENGYUN 1C DEB", "group": "fengyun-1c-debris", "lat": 16.54048913715584, "lon": 133.6291304896293, "alt_km": 1171.969874440494, "timestamp": "2025-12-25T07:00:34.337083+00:00", "meta": {"OBJECT_NAME": "FENGYUN 1C DEB", "OBJECT_ID": "1999-025DXN", "EPOCH": "2025-12-20T03:15:14.582880", "MEAN_MOTION": 13.5921712, "ECCENTRICITY": 0.0285778, "INCLINATION": 98.4233, "RA_OF_ASC_NODE": 131.7114, "ARG_OF_PERICENTER": 160.4918, "MEAN_ANOMALY": 200.7431, "EPHEMERIS_TYPE": 0, "CLASSIFICATION_TYPE": "U", "NORAD_CAT_ID": 36644, "ELEMENT_SET_NO": 999, "REV_AT_EPOCH": 61668, "BSTAR": 0.0010197403, "MEAN_MOTION_DOT": 9.49e-06, "MEAN_MOTION_DDOT": 0}, "tle": {"line1": "1 36644U 99025DXN 25354.13558545  .00000949  00000+0  10197-2 0  9994", "line2": "2 36644  98.4233 131.7114 0285778 160.4918 200.7431 13.59217120616683"}}, "geometry": {"type": "Point", "coordinates": [133.6291304896293, 16.54048913715584]}}, {"type": "Feature", "properties": {"norad_id": 36647, "name": "FENGYUN 1C DEB", "group": "fengyun-1c-debris", "lat": 73.14116250678106, "lon": 114.95923062816986, "alt_km": 1098.7915303454274, "timestamp": "2025-12-25T07:00:34.337094+00:00", "meta": {"OBJECT_NAME": "FENGYUN 1C DEB", "OBJECT_ID": "1999-025DXR", "EPOCH": "2025-12-17T15:22:01.202880", "MEAN_MOTION": 13.88856712, "ECCENTRICITY": 0.02401846, "INCLINATION": 96.1202, "RA_OF_ASC_NODE": 130.6548, "ARG_OF_PERICENTER": 285.5466, "MEAN_ANOMALY": 71.9303, "EPHEMERIS_TYPE": 0, "CLASSIFICATION_TYPE": "U", "NORAD_CAT_ID": 36647, "ELEMENT_SET_NO": 999, "REV_AT_EPOCH": 30480, "BSTAR": 0.0022455743, "MEAN_MOTION_DOT": 3.394e-05, "MEAN_MOTION_DDOT": 0}, "tle": {"line1": "1 36647U 99025DXR 25351.64029170  .00003394  00000+0  22456-2 0  9995", "line2": "2 36647  96.1202 130.6548 0240184 285.5466  71.9303 13.88856712304807"}}, "geometry": {"type": "Point", "coordinates": [114.95923062816986, 73.14116250678106]}}, {"type": "Feature", "properties": {"norad_id": 36652, "name": "FENGYUN 1C DEB", "group": "fengyun-1c-debris", "lat": -17.263980758099212, "lon": 84.45553666933752, "alt_km": 787.6574136632271, "timestamp": "2025-12-25T07:00:34.337104+00:00", "meta": {"OBJECT_NAME": "FENGYUN 1C DEB", "OBJECT_ID": "1999-025DXW", "EPOCH": "2025-12-24T10:50:21.142176", "MEAN_MOTION": 14.22897296, "ECCENTRICITY": 0.00509453, "INCLINATION": 98.9403, "RA_OF_ASC_NODE": 80.7986, "ARG_OF_PERICENTER": 318.2449, "MEAN_ANOMALY": 41.4845, "EPHEMERIS_TYPE": 0, "CLASSIFICATION_TYPE": "U", "NORAD_CAT_ID": 36652, "ELEMENT_SET_NO": 999, "REV_AT_EPOCH": 64491, "BSTAR": 0.0017394097, "MEAN_MOTION_DOT": 3.918e-05, "MEAN_MOTION_DDOT": 0}, "tle": {"line1": "1 36652U 99025DXW 25358.45163359  .00003918  00000+0  17394-2 0  9992", "line2": "2 36652  98.9403  80.7986 0050945 318.2449  41.4845 14.22897296644919"}}, "geometry": {"type": "Point", "coordinates": [84.45553666933752, -17.263980758099212]}}, {"type": "Feature", "properties": {"norad_id": 36657, "name": "FENGYUN 1C DEB", "group": "fengyun-1c-debris", "lat": -67.53753765731135, "lon": 175.67923300659788, "alt_km": 692.6293909301548, "timestamp": "2025-12-25T07:00:34.337114+00:00", "meta": {"OBJECT_NAME": "FENGYUN 1C DEB", "OBJECT_ID": "1999-025DYB", "EPOCH": "2025-12-24T16:34:37.790688", "MEAN_MOTION": 14.65600132, "ECCENTRICITY": 0.01054242, "INCLINATION": 99.4135, "RA_OF_ASC_NODE": 151.3338, "ARG_OF_PERICENTER": 30.9032, "MEAN_ANOMALY": 329.8315, "EPHEMERIS_TYPE": 0, "CLASSIFICATION_TYPE": "U", "NORAD_CAT_ID": 36657, "ELEMENT_SET_NO": 999, "REV_AT_EPOCH": 66431, "BSTAR": 0.000583973, "MEAN_MOTION_DOT": 3.376e-05, "MEAN_MOTION_DDOT": 0}, "tle": {"line1": "1 36657U 99025DYB 25358.69071517  .00003376  00000+0  58397-3 0  9994", "line2": "2 36657  99.4135 151.3338 0105424  30.9032 329.8315 14.65600132664316"}}, "geometry": {"type": "Point", "coordinates": [175.67923300659788, -67.53753765731135]}}, {"type": "Feature", "properties": {"norad_id": 36659, "name": "FENGYUN 1C DEB", "group": "fengyun-1c-debris", "lat": -5.356330275997068, "lon": 4.385910645466923, "alt_km": 873.0708601604301, "timestamp": "2025-12-25T07:00:34.337127+00:00", "meta": {"OBJECT_NAME": "FENGYUN 1C DEB", "OBJECT_ID": "1999-025DYD", "EPOCH": "2025-12-18T07:09:04.054176", "MEAN_MOTION": 13.87384482, "ECCENTRICITY": 0.01357919, "INCLINATION": 99.8541, "RA_OF_ASC_NODE": 356.081, "ARG_OF_PERICENTER": 60.2917, "MEAN_ANOMALY": 301.1674, "EPHEMERIS_TYPE": 0, "CLASSIFICATION_TYPE": "U", "NORAD_CAT_ID": 36659, "ELEMENT_SET_NO": 999, "REV_AT_EPOCH": 60502, "BSTAR": 0.00061832075, "MEAN_MOTION_DOT": 7.35e-06, "MEAN_MOTION_DDOT": 0}, "tle": {"line1": "1 36659U 99025DYD 25352.29796359  .00000735  00000+0  61832-3 0  9998", "line2": "2 36659  99.8541 356.0810 0135791  60.2917 301.1674 13.87384482605024"}}, "geometry": {"type": "Point", "coordinates": [4.385910645466923, -5.356330275997068]}}]}